{
  "norad_id": 65811,
  "name": "STARLINK-35224",
  "history": [
    {
      "epoch": "2026-03-28T13:47:01.032000Z",
      "apogee_km": 551.6520145329287,
      "perigee_km": 547.2945476661171,
      "latitude_deg": 3.198179562937791e-06,
      "longitude_deg": -81.14410938272955,
      "height_km": 551.9121382772055,
      "semi_major_axis_km": 6927.610281099523,
      "eccentricity": 0.0003145,
      "inclination_deg": 97.6034,
      "raan_deg": 311.603,
      "arg_perigee_deg": 73.4376,
      "mean_anomaly_deg": 286.7196,
      "mean_motion_rev_day": 15.05662347
    },
    {
      "epoch": "2026-03-29T04:08:19.030272Z",
      "apogee_km": 551.630319022328,
      "perigee_km": 547.3241140253358,
      "latitude_deg": 3.7341372106582425e-05,
      "longitude_deg": 63.53165432453978,
      "height_km": 551.8254011473076,
      "semi_major_axis_km": 6927.614216523832,
      "eccentricity": 0.0003108,
      "inclination_deg": 97.603,
      "raan_deg": 312.1933,
      "arg_perigee_deg": 70.693,
      "mean_anomaly_deg": 289.4633,
      "mean_motion_rev_day": 15.05661064
    },
    {
      "epoch": "2026-03-30T02:28:06.959712Z",
      "apogee_km": 551.4830938771374,
      "perigee_km": 547.5010926743225,
      "latitude_deg": 6.720475658707918e-05,
      "longitude_deg": 88.58128519008038,
      "height_km": 551.9295413625216,
      "semi_major_axis_km": 6927.62909327573,
      "eccentricity": 0.0002874,
      "inclination_deg": 97.6036,
      "raan_deg": 313.1097,
      "arg_perigee_deg": 71.7658,
      "mean_anomaly_deg": 288.3882,
      "mean_motion_rev_day": 15.05656214
    },
    {
      "epoch": "2026-03-30T02:28:06.960576Z",
      "apogee_km": 551.4827474956837,
      "perigee_km": 547.5014390557772,
      "latitude_deg": 7.26309050694776e-05,
      "longitude_deg": 88.58128085984191,
      "height_km": 551.9296497693153,
      "semi_major_axis_km": 6927.62909327573,
      "eccentricity": 0.00028735,
      "inclination_deg": 97.6036,
      "raan_deg": 313.1097,
      "arg_perigee_deg": 71.7658,
      "mean_anomaly_deg": 288.3882,
      "mean_motion_rev_day": 15.05656214
    },
    {
      "epoch": "2026-03-30T13:38:01.108896Z",
      "apogee_km": 551.5585871281337,
      "perigee_km": 547.4607455720552,
      "latitude_deg": 6.657113047778591e-05,
      "longitude_deg": -78.89466774651459,
      "height_km": 551.9273027270073,
      "semi_major_axis_km": 6927.646666350094,
      "eccentricity": 0.00029576,
      "inclination_deg": 97.6033,
      "raan_deg": 313.5679,
      "arg_perigee_deg": 71.7205,
      "mean_anomaly_deg": 288.4344,
      "mean_motion_rev_day": 15.05650485
    },
    {
      "epoch": "2026-03-30T21:36:31.046112Z",
      "apogee_km": 551.568835397261,
      "perigee_km": 547.4194614446033,
      "latitude_deg": -2.9466107690447697e-05,
      "longitude_deg": 161.48098609156514,
      "height_km": 551.8335601482976,
      "semi_major_axis_km": 6927.631148420932,
      "eccentricity": 0.00029948,
      "inclination_deg": 97.6039,
      "raan_deg": 313.8958,
      "arg_perigee_deg": 69.6682,
      "mean_anomaly_deg": 290.4866,
      "mean_motion_rev_day": 15.05655544
    },
    {
      "epoch": "2026-03-31T13:33:31.122720Z",
      "apogee_km": 551.6524221098589,
      "perigee_km": 547.3326294427652,
      "latitude_deg": 2.747789242324584e-05,
      "longitude_deg": -77.77008385836697,
      "height_km": 551.8929746667759,
      "semi_major_axis_km": 6927.629525776311,
      "eccentricity": 0.00031178,
      "inclination_deg": 97.6038,
      "raan_deg": 314.5501,
      "arg_perigee_deg": 72.2206,
      "mean_anomaly_deg": 287.9361,
      "mean_motion_rev_day": 15.05656073
    },
    {
      "epoch": "2026-04-01T21:27:31.178304Z",
      "apogee_km": 551.9510742134507,
      "perigee_km": 547.0283026886373,
      "latitude_deg": 3.931896111397752e-07,
      "longitude_deg": 163.73060276854673,
      "height_km": 551.9394239983434,
      "semi_major_axis_km": 6927.626688451043,
      "eccentricity": 0.0003553,
      "inclination_deg": 97.6039,
      "raan_deg": 315.8611,
      "arg_perigee_deg": 75.6667,
      "mean_anomaly_deg": 284.4954,
      "mean_motion_rev_day": 15.05656998
    },
    {
      "epoch": "2026-04-02T21:23:01.025376Z",
      "apogee_km": 551.7686871143851,
      "perigee_km": 547.1729121001244,
      "latitude_deg": 5.085756877610664e-05,
      "longitude_deg": 164.853870930276,
      "height_km": 551.5288101991531,
      "semi_major_axis_km": 6927.6077996072545,
      "eccentricity": 0.0003317,
      "inclination_deg": 97.6033,
      "raan_deg": 316.8413,
      "arg_perigee_deg": 64.1509,
      "mean_anomaly_deg": 296.006,
      "mean_motion_rev_day": 15.05663156
    },
    {
      "epoch": "2026-04-02T21:23:01.026240Z",
      "apogee_km": 551.7686178383074,
      "perigee_km": 547.1729813762031,
      "latitude_deg": 5.188563783684962e-05,
      "longitude_deg": 164.8538671839379,
      "height_km": 551.5288404102325,
      "semi_major_axis_km": 6927.6077996072545,
      "eccentricity": 0.00033169,
      "inclination_deg": 97.6033,
      "raan_deg": 316.8413,
      "arg_perigee_deg": 64.1509,
      "mean_anomaly_deg": 296.006,
      "mean_motion_rev_day": 15.05663156
    },
    {
      "epoch": "2026-04-03T14:55:42.414816Z",
      "apogee_km": 552.1196836471927,
      "perigee_km": 546.8740792721528,
      "latitude_deg": 7.775269474439586e-06,
      "longitude_deg": -98.31631990199753,
      "height_km": 550.4664214046877,
      "semi_major_axis_km": 6927.633881459673,
      "eccentricity": 0.0003786,
      "inclination_deg": 97.6022,
      "raan_deg": 317.5641,
      "arg_perigee_deg": 37.1168,
      "mean_anomaly_deg": 323.032,
      "mean_motion_rev_day": 15.05654653
    }
  ]
}